OBJECT_NAME,OBJECT_ID,EPOCH,MEAN_MOTION,ECCENTRICITY,INCLINATION,RA_OF_ASC_NODE,ARG_OF_PERICENTER,MEAN_ANOMALY,EPHEMERIS_TYPE,CLASSIFICATION_TYPE,NORAD_CAT_ID,ELEMENT_SET_NO,REV_AT_EPOCH,BSTAR,MEAN_MOTION_DOT,MEAN_MOTION_DDOT
TOMORROW-S2,2024-149T,2026-07-06T03:54:42.009408,15.33049013,.00029902,97.3809,268.0857,172.5798,187.5489,0,U,60485,999,10499,.27041919E-3,.8557E-4,0
FLOCK 4BE-36,2024-149U,2026-07-06T04:24:15.376320,15.43334079,.00040622,97.3737,271.8469,177.8338,182.2928,0,U,60486,999,10528,.40573327E-3,.18018E-3,0
FLOCK 4BE-25,2024-149V,2026-07-06T04:51:46.860480,15.39369638,.00030718,97.3789,270.4879,162.7370,197.3981,0,U,60487,999,10516,.37743849E-3,.1468E-3,0
FLOCK 4BE-31,2024-149W,2026-07-06T04:43:04.328832,15.44889414,.00030936,97.3791,272.7741,174.3451,185.7833,0,U,60488,999,10531,.49287219E-3,.23101E-3,0
FLOCK 4BE-20,2024-149X,2026-07-06T04:12:40.657248,15.38638181,.00042751,97.3688,269.2915,178.5288,181.5971,0,U,60489,999,10513,.39865483E-3,.15147E-3,0
FLOCK 4BE-23,2024-149Y,2026-07-06T04:05:53.499840,15.38197217,.00037905,97.3774,269.6732,181.9285,178.1946,0,U,60490,999,10511,.40624737E-3,.15216E-3,0
FLOCK 4BE-17,2024-149AA,2026-07-06T04:38:38.533056,15.40377205,.00037361,97.3764,270.7191,170.1374,189.9946,0,U,60492,999,10518,.41566068E-3,.16725E-3,0
NUSAT-50 (NANCY ROMAN),2024-149AB,2026-07-06T04:48:09.376992,15.30210559,.00047108,97.3779,268.3271,123.4909,236.6782,0,U,60493,999,10503,.31404221E-3,.9108E-4,0
FLOCK 4BE-22,2024-149AC,2026-07-06T03:47:21.756480,15.41780719,.00040519,97.3725,270.9054,180.5739,179.5504,0,U,60494,999,10522,.40905348E-3,.17244E-3,0
FLOCK 4BE-34,2024-149AD,2026-07-06T04:12:22.521024,15.41753631,.00039564,97.3776,271.7573,188.0848,172.0336,0,U,60495,999,10525,.40746756E-3,.17161E-3,0
TYCHE,2024-149AE,2026-07-06T05:14:20.713920,15.25922099,.00025933,97.3745,264.7798,182.5846,177.5380,0,U,60496,999,10480,.19245468E-3,.4865E-4,0
FLOCK 4BE-32,2024-149AF,2026-07-06T04:42:03.042720,15.42857166,.000415,97.3711,271.3363,184.8833,175.2374,0,U,60497,999,10526,.4786945E-3,.20944E-3,0
NUSAT-48 (HENRIETTA LEAVITT),2024-149AG,2026-07-06T04:31:58.795680,15.30170218,.00039678,97.3910,268.5926,187.0344,173.0842,0,U,60498,999,10504,.32447524E-3,.94E-4,0
NUSAT-49 (KLARA DAN VON NEUMANN),2024-149AJ,2026-07-06T03:58:45.783552,15.30279282,.00015877,97.3772,268.3251,190.7140,169.4067,0,U,60500,999,10503,.32011616E-3,.9303E-4,0
FLOCK 4BE-11,2024-149AK,2026-07-06T04:19:54.948576,15.43648949,.00042272,97.3690,271.5693,184.5947,175.5263,0,U,60501,999,10528,.43058685E-3,.19335E-3,0
YAM-7,2024-149AN,2026-07-06T04:41:48.114528,15.32095835,.00027625,97.3774,267.3708,199.2942,160.8195,0,U,60504,999,10496,.24763295E-3,.7597E-4,0
FLOCK 4BE-24,2024-149AP,2026-07-06T05:31:30.955296,15.43845305,.00043144,97.3706,271.8834,197.8094,162.3003,0,U,60505,999,10530,.49951778E-3,.22603E-3,0
LUR-1,2024-149AQ,2026-07-06T04:58:36.503616,15.30368346,.00031081,97.3728,265.9002,218.0273,142.0749,0,U,60506,999,10488,.24324885E-3,.7069E-4,0
TANAGER-1,2024-149AR,2026-07-06T04:55:16.920480,15.44201249,.00012464,97.2308,281.3898,188.8374,171.2853,0,U,60507,999,10597,.11027677E-4,.421E-5,0
EAGLEEYE,2024-149AS,2026-07-06T06:11:16.874016,15.75020003,.00049986,97.3713,281.7014,202.6773,157.4271,0,U,60508,999,10593,.84974082E-3,.12766E-2,0
FLOCK 4BE-29,2024-149AT,2026-07-06T05:28:44.370048,15.44905523,.0002765,97.3804,273.3958,199.1193,160.9952,0,U,60509,999,10535,.84812961E-3,.39923E-3,0
TRANSPORTER-11 OBJECT AU,2024-149AU,2026-07-06T05:17:14.276832,15.40791616,.00033879,97.3719,271.0991,197.8881,162.2246,0,U,60510,999,10524,.3809294E-3,.15529E-3,0
FLOCK 4BE-2,2024-149AV,2026-07-06T04:28:56.490816,15.55035092,.0004919,97.3823,275.0526,198.0045,162.1036,0,U,60511,999,10545,.10058636E-2,.6792E-3,0
FLOCK 4BE-13,2024-149AW,2026-07-06T05:35:16.344384,15.42436700,.00043716,97.3714,271.8483,183.5802,176.5415,0,U,60512,999,10530,.35048049E-3,.15086E-3,0
FLOCK 4BE-27,2024-149AX,2026-07-06T04:03:43.237152,15.34803020,.00031021,97.3820,269.0332,215.0339,145.0700,0,U,60513,999,10505,.30556762E-3,.10234E-3,0
FLOCK 4BE-9,2024-149AY,2026-07-06T04:19:28.790976,15.41402243,.00028426,97.3785,271.6428,197.9503,162.1644,0,U,60514,999,10524,.40037474E-3,.16661E-3,0
FLOCK 4BE-6,2024-149BA,2026-07-06T05:22:55.047936,15.40138321,.00034633,97.3780,271.0091,202.1627,157.9470,0,U,60516,999,10520,.38359118E-3,.15304E-3,0
FLOCK 4BE-14,2024-149BB,2026-07-06T04:33:37.292544,15.41642559,.00044009,97.3686,271.1287,207.4092,152.6923,0,U,60517,999,10525,.45141821E-3,.18956E-3,0
