TOMORROW-S2             
1 60485U 24149T   26187.16298622  .00008557  00000+0  27042-3 0  9995
2 60485  97.3809 268.0857 0002990 172.5798 187.5489 15.33049013104990
FLOCK 4BE-36            
1 60486U 24149U   26187.18351130  .00018018  00000+0  40573-3 0  9999
2 60486  97.3737 271.8469 0004062 177.8338 182.2928 15.43334079105285
FLOCK 4BE-25            
1 60487U 24149V   26187.20262570  .00014680  00000+0  37744-3 0  9999
2 60487  97.3789 270.4879 0003071 162.7370 197.3981 15.39369638105168
FLOCK 4BE-31            
1 60488U 24149W   26187.19657788  .00023101  00000+0  49287-3 0  9990
2 60488  97.3791 272.7741 0003093 174.3451 185.7833 15.44889414105317
FLOCK 4BE-20            
1 60489U 24149X   26187.17547057  .00015147  00000+0  39865-3 0  9998
2 60489  97.3688 269.2915 0004275 178.5288 181.5971 15.38638181105137
FLOCK 4BE-23            
1 60490U 24149Y   26187.17075810  .00015216  00000+0  40625-3 0  9996
2 60490  97.3774 269.6732 0003790 181.9285 178.1946 15.38197217105114
FLOCK 4BE-17            
1 60492U 24149AA  26187.19350154  .00016725  00000+0  41566-3 0  9998
2 60492  97.3764 270.7191 0003736 170.1374 189.9946 15.40377205105183
NUSAT-50 (NANCY ROMAN)  
1 60493U 24149AB  26187.20010853  .00009108  00000+0  31404-3 0  9997
2 60493  97.3779 268.3271 0004710 123.4909 236.6782 15.30210559105039
FLOCK 4BE-22            
1 60494U 24149AC  26187.15789070  .00017244  00000+0  40905-3 0  9992
2 60494  97.3725 270.9054 0004051 180.5739 179.5504 15.41780719105222
FLOCK 4BE-34            
1 60495U 24149AD  26187.17526066  .00017161  00000+0  40747-3 0  9991
2 60495  97.3776 271.7573 0003956 188.0848 172.0336 15.41753631105258
TYCHE                   
1 60496U 24149AE  26187.21829530  .00004865  00000+0  19245-3 0  9995
2 60496  97.3745 264.7798 0002593 182.5846 177.5380 15.25922099104806
FLOCK 4BE-32            
1 60497U 24149AF  26187.19586855  .00020944  00000+0  47869-3 0  9992
2 60497  97.3711 271.3363 0004150 184.8833 175.2374 15.42857166105264
NUSAT-48 (HENRIETTA LE*)
1 60498U 24149AG  26187.18887495  .00009400  00000+0  32448-3 0  9997
2 60498  97.3910 268.5926 0003967 187.0344 173.0842 15.30170218105041
NUSAT-49 (KLARA DAN VO*)
1 60500U 24149AJ  26187.16580768  .00009303  00000+0  32012-3 0  9991
2 60500  97.3772 268.3251 0001587 190.7140 169.4067 15.30279282105039
FLOCK 4BE-11            
1 60501U 24149AK  26187.18049709  .00019335  00000+0  43059-3 0  9998
2 60501  97.3690 271.5693 0004227 184.5947 175.5263 15.43648949105282
YAM-7                   
1 60504U 24149AN  26187.19569577  .00007597  00000+0  24763-3 0  9990
2 60504  97.3774 267.3708 0002762 199.2942 160.8195 15.32095835104961
FLOCK 4BE-24            
1 60505U 24149AP  26187.23021939  .00022603  00000+0  49952-3 0  9993
2 60505  97.3706 271.8834 0004314 197.8094 162.3003 15.43845305105305
LUR-1                   
1 60506U 24149AQ  26187.20736694  .00007069  00000+0  24325-3 0  9998
2 60506  97.3728 265.9002 0003108 218.0273 142.0749 15.30368346104881
TANAGER-1               
1 60507U 24149AR  26187.20505695  .00000421  00000+0  11028-4 0  9996
2 60507  97.2308 281.3898 0001246 188.8374 171.2853 15.44201249105971
EAGLEEYE                
1 60508U 24149AS  26187.25783419  .00127660  00000+0  84974-3 0  9998
2 60508  97.3713 281.7014 0004998 202.6773 157.4271 15.75020003105939
FLOCK 4BE-29            
1 60509U 24149AT  26187.22829132  .00039923  00000+0  84813-3 0  9995
2 60509  97.3804 273.3958 0002765 199.1193 160.9952 15.44905523105357
TRANSPORTER-11 OBJECT AU
1 60510U 24149AU  26187.22030413  .00015529  00000+0  38093-3 0  9998
2 60510  97.3719 271.0991 0003387 197.8881 162.2246 15.40791616105247
FLOCK 4BE-2             
1 60511U 24149AV  26187.18676494  .00067920  00000+0  10059-2 0  9992
2 60511  97.3823 275.0526 0004919 198.0045 162.1036 15.55035092105453
FLOCK 4BE-13            
1 60512U 24149AW  26187.23282806  .00015086  00000+0  35048-3 0  9991
2 60512  97.3714 271.8483 0004371 183.5802 176.5415 15.42436700105302
FLOCK 4BE-27            
1 60513U 24149AX  26187.16925043  .00010234  00000+0  30557-3 0  9991
2 60513  97.3820 269.0332 0003102 215.0339 145.0700 15.34803020105054
FLOCK 4BE-9             
1 60514U 24149AY  26187.18019434  .00016661  00000+0  40037-3 0  9996
2 60514  97.3785 271.6428 0002842 197.9503 162.1644 15.41402243105249
FLOCK 4BE-6             
1 60516U 24149BA  26187.22424824  .00015304  00000+0  38359-3 0  9993
2 60516  97.3780 271.0091 0003463 202.1627 157.9470 15.40138321105209
FLOCK 4BE-14            
1 60517U 24149BB  26187.19001496  .00018956  00000+0  45142-3 0  9990
2 60517  97.3686 271.1287 0004400 207.4092 152.6923 15.41642559105253
